SENTINEL-6              
1 46984U 20086A   24194.60633914 -.00000041  00000+0  86764-4 0  9999
2 46984  66.0400 158.4744 0007930 270.1758  89.8349 12.80929804170081
